NORAD_CAT_ID,OBJECT_NAME,OBJECT_TYPE,EPOCH,MEAN_MOTION,ECCENTRICITY,INCLINATION,RA_OF_ASC_NODE,ARG_OF_PERICENTER,MEAN_ANOMALY,BSTAR,MEAN_MOTION_DOT,MEAN_MOTION_DDOT,TLE_LINE0,TLE_LINE1,TLE_LINE2,SEMIMAJOR_AXIS,PERIOD,APOGEE,PERIGEE,DECAYED
54190.0,STARLINK-5281,PAYLOAD,2023-09-26 15:17:15,15.08838471,0.0001385,53.2177,52.2858,95.4061,264.7089,0.00023432,3.443e-05,0.0,0 STARLINK-5281,1 54190U 22141AK  23269.63699018  .00003443  00000-0  23432-3 0  9994,2 54190  53.2177  52.2858 0001385  95.4061 264.7089 15.08838471 51106,6917.885,95.438,540.708,538.792,0.0
54190.0,STARLINK-5281,PAYLOAD,2023-09-26 20:03:25,15.08838282,0.0001432,53.2181,51.3915,94.1465,265.9691,0.00032752,4.928e-05,0.0,0 STARLINK-5281,1 54190U 22141AK  23269.83571113  .00004928  00000-0  32752-3 0  9995,2 54190  53.2181  51.3915 0001432  94.1465 265.9691 15.08838282 50901,6917.886,95.438,540.741,538.76,0.0
54190.0,STARLINK-5281,PAYLOAD,2023-09-27 02:24:58,15.08830815,0.0001607,53.2185,50.2023,81.8864,278.2311,0.00035669,5.392e-05,0.0,0 STARLINK-5281,1 54190U 22141AK  23270.10067612  .00005392  00000-0  35669-3 0  9997,2 54190  53.2185  50.2023 0001607  81.8864 278.2311 15.08830815 51173,6917.908,95.438,540.885,538.662,0.0
54190.0,STARLINK-5281,PAYLOAD,2023-09-28 08:37:18,15.08838709,0.0001419,53.2169,44.554,78.46,281.6552,0.00027263,4.053e-05,0.0,0 STARLINK-5281,1 54190U 22141AK  23271.35924001  .00004053  00000-0  27263-3 0  9993,2 54190  53.2169  44.5540 0001419  78.4600 281.6552 15.08838709 51362,6917.884,95.438,540.731,538.768,0.0
54190.0,STARLINK-5281,PAYLOAD,2023-09-28 14:58:50,15.08844404,0.0001542,53.2177,43.3671,71.9754,288.1406,0.00036335,5.5e-05,0.0,0 STARLINK-5281,1 54190U 22141AK  23271.62419890  .00005500  00000-0  36335-3 0  9996,2 54190  53.2177  43.3671 0001542  71.9754 288.1406 15.08844404 51176,6917.867,95.437,540.799,538.665,0.0
54190.0,STARLINK-5281,PAYLOAD,2023-09-28 16:34:13,15.08845926,0.0001682,53.2176,43.0699,62.3867,297.7296,0.00041846,6.379e-05,0.0,0 STARLINK-5281,1 54190U 22141AK  23271.69043926  .00006379  00000-0  41846-3 0  9994,2 54190  53.2176  43.0699 0001682  62.3867 297.7296 15.08845926 51180,6917.862,95.437,540.891,538.564,0.0
54190.0,STARLINK-5281,PAYLOAD,2023-09-29 13:14:14,15.08846875,0.0001497,53.2173,39.2049,76.5016,283.6143,0.00024735,3.652e-05,0.0,0 STARLINK-5281,1 54190U 22141AK  23272.55155806  .00003652  00000-0  24735-3 0  9990,2 54190  53.2173  39.2049 0001497  76.5016 283.6143 15.08846875 51314,6917.859,95.437,540.76,538.689,0.0
54190.0,STARLINK-5281,PAYLOAD,2023-09-29 14:49:37,15.08846975,0.0001527,53.2174,38.9078,73.1159,287.0001,0.0002425,3.574e-05,0.0,0 STARLINK-5281,1 54190U 22141AK  23272.61779702  .00003574  00000-0  24250-3 0  9999,2 54190  53.2174  38.9078 0001527  73.1159 287.0001 15.08846975 51556,6917.859,95.437,540.78,538.668,0.0
54190.0,STARLINK-5281,PAYLOAD,2023-09-30 01:57:19,15.08850878,0.0001425,53.2166,36.8246,70.1024,290.0121,0.00028309,4.222e-05,0.0,0 STARLINK-5281,1 54190U 22141AK  23273.08147473  .00004222  00000-0  28309-3 0  9995,2 54190  53.2166  36.8246 0001425  70.1024 290.0121 15.08850878 51392,6917.847,95.437,540.698,538.726,0.0
54190.0,STARLINK-5281,PAYLOAD,2023-09-30 08:18:53,15.08812386,8.29e-05,53.219,35.6334,81.1988,278.9098,-0.00044749,-7.397e-05,0.0,0 STARLINK-5281,1 54190U 22141AK  23273.34645179 -.00007397  00000-0 -44749-3 0  9994,2 54190  53.2190  35.6334 0000829  81.1988 278.9098 15.08812386 51662,6917.965,95.439,540.403,539.256,0.0
54190.0,STARLINK-5281,PAYLOAD,2023-09-30 14:40:25,15.08829823,0.0001461,53.2185,34.4441,90.5116,269.6044,8.67e-05,1.092e-05,0.0,0 STARLINK-5281,1 54190U 22141AK  23273.61141033  .00001092  00000-0  86700-4 0  9992,2 54190  53.2185  34.4441 0001461  90.5116 269.6044 15.08829823 51709,6917.911,95.438,540.787,538.766,0.0
54190.0,STARLINK-5281,PAYLOAD,2023-10-01 12:55:48,15.08880757,0.0001514,53.2179,30.28,86.7709,273.3456,0.0015077,0.00023815,0.0,0 STARLINK-5281,1 54190U 22141AK  23274.53876029  .00023815  00000-0  15077-2 0  9998,2 54190  53.2179  30.2800 0001514  86.7709 273.3456 15.08880757 51846,6917.756,95.435,540.668,538.573,0.0
54190.0,STARLINK-5281,PAYLOAD,2023-10-01 14:31:11,15.08893726,0.0001467,53.218,29.9824,85.2158,274.9002,0.0019166,0.00030392,0.0,0 STARLINK-5281,1 54190U 22141AK  23274.60499696  .00030392  00000-0  19166-2 0  9998,2 54190  53.2180  29.9824 0001467  85.2158 274.9002 15.08893726 51628,6917.716,95.434,540.596,538.566,0.0
54190.0,STARLINK-5281,PAYLOAD,2023-10-01 17:41:57,15.08904883,0.000144,53.2179,29.3881,78.2286,281.8868,0.0018966,0.00030079,0.0,0 STARLINK-5281,1 54190U 22141AK  23274.73747082  .00030079  00000-0  18966-2 0  9996,2 54190  53.2179  29.3881 0001440  78.2286 281.8868 15.08904883 51879,6917.682,95.433,540.543,538.551,0.0
54190.0,STARLINK-5281,PAYLOAD,2023-10-02 11:11:12,15.08833268,0.0001255,53.2191,26.1197,53.4664,306.6444,0.00029373,4.389e-05,0.0,0 STARLINK-5281,1 54190U 22141AK  23275.46611481  .00004389  00000-0  29373-3 0  9990,2 54190  53.2191  26.1197 0001255  53.4664 306.6444 15.08833268 51983,6917.901,95.438,540.634,538.898,0.0
54190.0,STARLINK-5281,PAYLOAD,2023-10-02 19:08:08,15.08846637,0.0001376,53.2189,24.6325,90.3957,269.7193,0.0023638,0.00037539,0.0,0 STARLINK-5281,1 54190U 22141AK  23275.79731693  .00037539  00000-0  23638-2 0  9994,2 54190  53.2189  24.6325 0001376  90.3957 269.7193 15.08846637 51800,6917.86,95.437,540.677,538.773,0.0
54190.0,STARLINK-5281,PAYLOAD,2023-10-03 12:37:22,15.08845767,0.0001494,53.2184,21.3622,98.3968,261.7193,0.0012836,0.00020203,0.0,0 STARLINK-5281,1 54190U 22141AK  23276.52596045  .00020203  00000-0  12836-2 0  9994,2 54190  53.2184  21.3622 0001494  98.3968 261.7193 15.08845767 52143,6917.863,95.437,540.761,538.694,0.0
54190.0,STARLINK-5281,PAYLOAD,2023-10-03 14:12:46,15.08851491,0.0001417,53.2182,21.0662,93.1374,266.978,0.0015503,0.00024479,0.0,0 STARLINK-5281,1 54190U 22141AK  23276.59219983  .00024479  00000-0  15503-2 0  9997,2 54190  53.2182  21.0662 0001417  93.1374 266.9780 15.08851491 51926,6917.845,95.437,540.691,538.73,0.0
54190.0,STARLINK-5281,PAYLOAD,2023-10-03 17:23:32,15.0886083,0.000142,53.2185,20.4713,92.5325,267.583,0.0016699,0.00026404,0.0,0 STARLINK-5281,1 54190U 22141AK  23276.72467789  .00026404  00000-0  16699-2 0  9998,2 54190  53.2185  20.4713 0001420  92.5325 267.5830 15.08860830 51944,6917.817,95.436,540.664,538.699,0.0
54190.0,STARLINK-5281,PAYLOAD,2023-10-04 10:52:46,15.08861206,0.0001407,53.2179,17.1991,101.4992,258.6158,0.0017266,0.00027314,0.0,0 STARLINK-5281,1 54190U 22141AK  23277.45331816  .00027314  00000-0  17266-2 0  9992,2 54190  53.2179  17.1991 0001407 101.4992 258.6158 15.08861206 52283,6917.816,95.436,540.654,538.707,0.0
54190.0,STARLINK-5281,PAYLOAD,2023-10-04 14:03:32,15.08869617,0.0001314,53.2178,16.6039,102.663,257.4509,0.0021026,0.00033361,0.0,0 STARLINK-5281,1 54190U 22141AK  23277.58579563  .00033361  00000-0  21026-2 0  9997,2 54190  53.2178  16.6039 0001314 102.6630 257.4509 15.08869617 52076,6917.79,95.436,540.564,538.746,0.0
54190.0,STARLINK-5281,PAYLOAD,2023-10-04 17:14:18,15.08879773,0.0001309,53.2176,16.0097,101.2678,258.8462,0.0023275,0.00036989,0.0,0 STARLINK-5281,1 54190U 22141AK  23277.71827285  .00036989  00000-0  23275-2 0  9996,2 54190  53.2176  16.0097 0001309 101.2678 258.8462 15.08879773 52092,6917.759,95.435,540.529,538.718,0.0
54190.0,STARLINK-5281,PAYLOAD,2023-10-05 10:43:33,15.08861172,0.0001473,53.2176,12.7399,114.9228,245.1918,0.0019342,0.00030647,0.0,0 STARLINK-5281,1 54190U 22141AK  23278.44691531  .00030647  00000-0  19342-2 0  9995,2 54190  53.2176  12.7399 0001473 114.9228 245.1918 15.08861172 52431,6917.816,95.436,540.7,538.662,0.0
54190.0,STARLINK-5281,PAYLOAD,2023-10-05 13:54:19,15.08859974,0.0001359,53.2171,12.1446,127.934,232.1775,0.0019696,0.00031215,0.0,0 STARLINK-5281,1 54190U 22141AK  23278.57939378  .00031215  00000-0  19696-2 0  9997,2 54190  53.2171  12.1446 0001359 127.9340 232.1775 15.08859974 52226,6917.819,95.436,540.624,538.744,0.0
54190.0,STARLINK-5281,PAYLOAD,2023-10-05 18:40:28,15.08864684,0.0001393,53.2174,11.2497,103.7385,256.3762,0.0016342,0.00025834,0.0,0 STARLINK-5281,1 54190U 22141AK  23278.77811257  .00025834  00000-0  16342-2 0  9999,2 54190  53.2174  11.2497 0001393 103.7385 256.3762 15.08864684 52255,6917.805,95.436,540.634,538.706,0.0
54190.0,STARLINK-5281,PAYLOAD,2023-10-06 10:34:21,15.08835073,0.0001364,53.2167,8.2787,92.9862,267.1286,0.0015139,0.00023885,0.0,0 STARLINK-5281,1 54190U 22141AK  23279.44052487  .00023885  00000-0  15139-2 0  9993,2 54190  53.2167   8.2787 0001364  92.9862 267.1286 15.08835073 52589,6917.895,95.438,540.704,538.817,0.0
54190.0,STARLINK-5281,PAYLOAD,2023-10-06 13:45:07,15.08846169,0.0001334,53.2168,7.6842,91.4295,268.685,0.002625,0.00041744,0.0,0 STARLINK-5281,1 54190U 22141AK  23279.57300575  .00041744  00000-0  26250-2 0  9991,2 54190  53.2168   7.6842 0001334  91.4295 268.6850 15.08846169 52374,6917.862,95.437,540.649,538.804,0.0
54190.0,STARLINK-5281,PAYLOAD,2023-10-06 18:31:16,15.08861475,0.0001436,53.2166,6.7918,90.6908,269.4248,0.0026529,0.00042211,0.0,0 STARLINK-5281,1 54190U 22141AK  23279.77172416  .00042211  00000-0  26529-2 0  9993,2 54190  53.2166   6.7918 0001436  90.6908 269.4248 15.08861475 52402,6917.815,95.436,540.673,538.686,0.0
54190.0,STARLINK-5281,PAYLOAD,2023-10-07 10:25:08,15.088646,0.0001387,53.2176,3.8179,99.7285,260.3864,0.0021597,0.00034274,0.0,0 STARLINK-5281,1 54190U 22141AK  23280.43412428  .00034274  00000-0  21597-2 0  9998,2 54190  53.2176   3.8179 0001387  99.7285 260.3864 15.08864600 52736,6917.805,95.436,540.63,538.711,0.0
54190.0,STARLINK-5281,PAYLOAD,2023-10-07 12:00:31,15.08869953,0.0001401,53.2174,3.5205,97.8525,262.2626,0.0025061,0.00039855,0.0,0 STARLINK-5281,1 54190U 22141AK  23280.50036350  .00039855  00000-0  25061-2 0  9992,2 54190  53.2174   3.5205 0001401  97.8525 262.2626 15.08869953 52513,6917.789,95.436,540.623,538.685,0.0
